GLOBALSTAR M024         
1 25883U 99043A   25305.51150637 -.00000083  00000+0 -62977-3 0  9990
2 25883  52.0024  70.7652 0000735 357.6198  82.5508 11.10170743130111
GLOBALSTAR M027         
1 25884U 99043B   25305.62231461 -.00000071  00000+0 -27199-3 0  9992
2 25884  52.0176 152.3962 0020654 211.1662 148.7907 11.04372825156421
GLOBALSTAR M054         
1 25885U 99043C   25305.64504255 -.00000034  00000+0  93779-3 0  9994
2 25885  52.0133 256.5766 0005721  51.5644 119.0335 11.39222259134715
GLOBALSTAR M053         
1 25886U 99043D   25305.49402206 -.00000075  00000+0 -17926-3 0  9997
2 25886  51.9969 211.6519 0003349 333.5388 196.8841 11.27667987134938
GLOBALSTAR M058         
1 25907U 99049A   25305.18961574 -.00000055  00000+0  39281-3 0  9996
2 25907  51.9914 103.3374 0002373 154.6621 205.4331 11.93203703557896
GLOBALSTAR M050         
1 25908U 99049B   25305.15902900 -.00000116  00000+0 -31866-3 0  9992
2 25908  51.9969 100.8621 0008151 307.5236 223.2269 12.07459963164737
GLOBALSTAR M033         
1 25909U 99049C   25305.54805556 -.00000133  00000+0 -39973-3 0  9991
2 25909  51.9929 322.1412 0013859 186.7473 173.3189 12.20292498552518
GLOBALSTAR M055         
1 25910U 99049D   25305.49171319 -.00000049  00000+0  38355-3 0  9998
2 25910  52.0032 326.3626 0007193  57.8157 302.3392 12.29434775185170
